*******************************************************************************
Ephemeris / WWW_USER Mon Mar 26 21:08:07 2018 Pasadena, USA      / Horizons    
*******************************************************************************
Target body name: Oberon (704)                    {source: ura111}
Center body name: Uranus Barycenter (7)           {source: DE431mx}
Center-site name: BODY CENTER
*******************************************************************************
Start time      : A.D. 2000-Jan-01 00:00:00.0000 TDB
Stop  time      : A.D. 2010-Jan-01 00:00:00.0000 TDB
Step-size       : 7200 minutes
*******************************************************************************
Center geodetic : 0.00000000,0.00000000,0.0000000 {E-lon(deg),Lat(deg),Alt(km)}
Center cylindric: 0.00000000,0.00000000,0.0000000 {E-lon(deg),Dxy(km),Dz(km)}
Center radii    : (undefined)                                                  
Output units    : AU-D                                                         
Output type     : GEOMETRIC cartesian states
Output format   : 2 (position and velocity)
Reference frame : ICRF/J2000.0                                                 
Coordinate systm: Ecliptic and Mean Equinox of Reference Epoch                 
*******************************************************************************
JDTDB
   X     Y     Z
   VX    VY    VZ
*******************************************************************************
$$SOE
2453644.500000000 = A.D. 2005-Oct-01 00:00:00.0000 TDB 
  -3.268336261652016E-03  4.115533867860301E-04 -2.101260405321435E-03
  -9.195873051205872E-04  4.140516153147147E-04  1.510797553523906E-03
2453649.500000000 = A.D. 2005-Oct-06 00:00:00.0000 TDB 
   8.147482843161810E-04  3.611458612298608E-04  3.792079262489489E-03
   1.739857583924020E-03 -4.254299682016829E-04 -3.356643333179735E-04
2453654.500000000 = A.D. 2005-Oct-11 00:00:00.0000 TDB 
   2.111434593925599E-03 -9.056805868689944E-04 -3.151638738756487E-03
  -1.479942319130281E-03  1.730721093097423E-04 -1.045094775753958E-03
2453659.500000000 = A.D. 2005-Oct-16 00:00:00.0000 TDB 
  -3.762521953632061E-03  8.936578833492777E-04  5.401478069842478E-04
   3.026639100903764E-04  1.872299339004348E-04  1.782706135529171E-03
2453664.500000000 = A.D. 2005-Oct-21 00:00:00.0000 TDB 
   3.062432791578005E-03 -3.269145088961526E-04  2.382651321511649E-03
   1.058829659698556E-03 -4.313927186382988E-04 -1.419896692020896E-03
2453669.500000000 = A.D. 2005-Oct-26 00:00:00.0000 TDB 
  -4.886621048128956E-04 -4.399038995361078E-04 -3.848078867086101E-03
  -1.763008719623913E-03  4.078334128318413E-04  1.762071802897759E-04
2453674.500000000 = A.D. 2005-Oct-31 00:00:00.0000 TDB 
  -2.405833338305424E-03  9.370201550795610E-04  2.921912562424057E-03
   1.381664281499975E-03 -1.328764061820962E-04  1.177982634859196E-03
2453679.500000000 = A.D. 2005-Nov-05 00:00:00.0000 TDB 
   3.798201632352608E-03 -8.538260802475117E-04 -2.047790940041030E-04
  -1.459651236557388E-04 -2.238710331793331E-04 -1.801115658454807E-03
2453684.500000000 = A.D. 2005-Nov-10 00:00:00.0000 TDB 
  -2.850490333229961E-03  2.421727929656914E-04 -2.655533814325697E-03
  -1.181776135060314E-03  4.424296762316348E-04  1.309499675373874E-03
2453689.500000000 = A.D. 2005-Nov-15 00:00:00.0000 TDB 
   1.321453284751779E-04  5.191162659729368E-04  3.860707559128512E-03
   1.779438139888576E-03 -3.877338419406211E-04 -9.396058142196972E-06
2453694.500000000 = A.D. 2005-Nov-20 00:00:00.0000 TDB 
   2.658191514778314E-03 -9.585547661652485E-04 -2.687404591825742E-03
  -1.275439679091737E-03  9.317457794753225E-05 -1.295193954049023E-03
2453699.500000000 = A.D. 2005-Nov-25 00:00:00.0000 TDB 
  -3.813775852216634E-03  8.067375429958094E-04 -1.509306756004368E-04
  -1.666062518786095E-05  2.591730294811076E-04  1.800989763145073E-03
2453704.500000000 = A.D. 2005-Nov-30 00:00:00.0000 TDB 
   2.605622259518534E-03 -1.546498761018292E-04  2.897563662083640E-03
   1.298725360133354E-03 -4.512554271808446E-04 -1.192691288121228E-03
2453709.500000000 = A.D. 2005-Dec-05 00:00:00.0000 TDB 
   2.082426986453615E-04 -5.913025958910028E-04 -3.848435318699044E-03
  -1.777136443229028E-03  3.642514744146331E-04 -1.525796634270907E-04
2453714.500000000 = A.D. 2005-Dec-10 00:00:00.0000 TDB 
  -2.899712352336567E-03  9.734249528464975E-04  2.422570100793360E-03
   1.155548205303429E-03 -5.167726781510756E-05  1.404168565529074E-03
2453719.500000000 = A.D. 2005-Dec-15 00:00:00.0000 TDB 
   3.790686097650207E-03 -7.512657961087891E-04  5.065925615994684E-04
   1.793209442205671E-04 -2.927339032082749E-04 -1.788538500290476E-03
2453724.500000000 = A.D. 2005-Dec-20 00:00:00.0000 TDB 
  -2.351772573265443E-03  6.937417326869681E-05 -3.110037258883211E-03
  -1.402009635060130E-03  4.559404260184614E-04  1.067596354851599E-03
2453729.500000000 = A.D. 2005-Dec-25 00:00:00.0000 TDB 
  -5.612038713516640E-04  6.619579953298320E-04  3.806123888283964E-03
   1.758547226298149E-03 -3.369751690387457E-04  3.163858020036936E-04
2453734.500000000 = A.D. 2005-Dec-30 00:00:00.0000 TDB 
   3.107082224144941E-03 -9.777581251896865E-04 -2.135650281629110E-03
  -1.030254898253887E-03  1.040996969274035E-05 -1.503239734826525E-03
2453739.500000000 = A.D. 2006-Jan-04 00:00:00.0000 TDB 
  -3.748099961410579E-03  6.944460932031915E-04 -8.418517975980971E-04
  -3.370834379567206E-04  3.225883791341147E-04  1.757491818162965E-03
2453744.500000000 = A.D. 2006-Jan-09 00:00:00.0000 TDB 
   2.050938030106150E-03  2.511778985558363E-05  3.315559622080371E-03
   1.498530471786775E-03 -4.570278746427414E-04 -9.275272470615051E-04
2453749.500000000 = A.D. 2006-Jan-14 00:00:00.0000 TDB 
   8.809536930973645E-04 -7.200940865139042E-04 -3.726454527731165E-03
  -1.732179562641673E-03  3.091190478831031E-04 -4.723579580490686E-04
2453754.500000000 = A.D. 2006-Jan-19 00:00:00.0000 TDB 
  -3.305670736847429E-03  9.787993921384248E-04  1.839029780175635E-03
   8.908351504912199E-04  3.116974660067384E-05  1.582898208558379E-03
2453759.500000000 = A.D. 2006-Jan-24 00:00:00.0000 TDB 
   3.653754944382024E-03 -6.243228176840809E-04  1.191675356379239E-03
   4.982233833831674E-04 -3.519836720229612E-04 -1.718028559338367E-03
2453764.500000000 = A.D. 2006-Jan-29 00:00:00.0000 TDB 
  -1.774896507591585E-03 -1.074945711322477E-04 -3.473641367499493E-03
  -1.575856923075989E-03  4.538931396617145E-04  7.870924078118754E-04
2453769.500000000 = A.D. 2006-Feb-03 00:00:00.0000 TDB 
  -1.240878659704449E-03  7.825460567629502E-04  3.615671654170428E-03
   1.683024593672057E-03 -2.756301476125400E-04  6.331293157707921E-04
2453774.500000000 = A.D. 2006-Feb-08 00:00:00.0000 TDB 
   3.448098032761653E-03 -9.657221773222788E-04 -1.528859777938824E-03
  -7.531698795522493E-04 -7.183273862303335E-05 -1.658749375065849E-03
2453779.500000000 = A.D. 2006-Feb-13 00:00:00.0000 TDB 
  -3.558765928807966E-03  5.577478520914101E-04 -1.515454546011591E-03
  -6.467784908795948E-04  3.753410705165933E-04  1.655252568074377E-03
2453784.500000000 = A.D. 2006-Feb-18 00:00:00.0000 TDB 
   1.433894506829659E-03  2.018206636284051E-04  3.616447401269641E-03
   1.649258435516893E-03 -4.478622871057391E-04 -6.322415442765459E-04
2453789.500000000 = A.D. 2006-Feb-23 00:00:00.0000 TDB 
   1.537189999708317E-03 -8.285197830507469E-04 -3.486184933966405E-03
  -1.627220319151497E-03  2.427515854568081E-04 -7.794284551609962E-04
2453794.500000000 = A.D. 2006-Feb-28 00:00:00.0000 TDB 
  -3.596514514182068E-03  9.493604058537951E-04  1.186340431443284E-03
   5.978940931101357E-04  1.132871542469560E-04  1.713236020002984E-03
2453799.500000000 = A.D. 2006-Mar-05 00:00:00.0000 TDB 
   3.405021070221345E-03 -4.802081755944191E-04  1.826632165237629E-03
   7.973817442581960E-04 -3.988142800947825E-04 -1.590151382636088E-03
2453804.500000000 = A.D. 2006-Mar-10 00:00:00.0000 TDB 
  -1.129464472383238E-03 -2.837099194877860E-04 -3.727596016085332E-03
  -1.697960841057845E-03  4.367637922556767E-04  4.794572480100608E-04
2453809.500000000 = A.D. 2006-Mar-15 00:00:00.0000 TDB 
  -1.870848861170760E-03  8.755736785133950E-04  3.307070507955896E-03
   1.552119910608769E-03 -2.052161042978848E-04  9.290274431680085E-04
2453814.500000000 = A.D. 2006-Mar-20 00:00:00.0000 TDB 
   3.686755788765023E-03 -9.228971518897600E-04 -8.617480741676033E-04
  -4.468653445264428E-04 -1.526084782041801E-04 -1.759204147512621E-03
2453819.500000000 = A.D. 2006-Mar-25 00:00:00.0000 TDB 
  -3.242274542288978E-03  4.009118678862012E-04 -2.136384021141198E-03
  -9.370777074747205E-04  4.166084439817610E-04  1.501747372429112E-03
2453824.500000000 = A.D. 2006-Mar-30 00:00:00.0000 TDB 
   7.825280585496243E-04  3.693173538010211E-04  3.799921030013271E-03
   1.742652776262076E-03 -4.235950130300291E-04 -3.182494977348987E-04
2453829.500000000 = A.D. 2006-Apr-04 00:00:00.0000 TDB 
   2.151534352952317E-03 -9.105926841231905E-04 -3.124268213342796E-03
  -1.468101705182665E-03  1.681562256083321E-04 -1.061613542864960E-03
2453834.500000000 = A.D. 2006-Apr-09 00:00:00.0000 TDB 
  -3.765136555666895E-03  8.890726575473374E-04  5.034119815490214E-04
   2.853501831779415E-04  1.915958137985354E-04  1.786764978288346E-03
2453839.500000000 = A.D. 2006-Apr-14 00:00:00.0000 TDB 
   3.042283348866158E-03 -3.177555963921042E-04  2.416322479447622E-03
   1.072530831152952E-03 -4.325141256640555E-04 -1.406540758673108E-03
2453844.500000000 = A.D. 2006-Apr-19 00:00:00.0000 TDB 
  -4.463503074046747E-04 -4.491408324299804E-04 -3.847880969519188E-03
  -1.767436403141415E-03  4.061246547093077E-04  1.572009555350462E-04
2453849.500000000 = A.D. 2006-Apr-24 00:00:00.0000 TDB 
  -2.433208690181212E-03  9.401471725381744E-04  2.901407870689541E-03
   1.369868460323155E-03 -1.285509604762787E-04  1.190356575550815E-03
